41187,ORBCOMM FM108,2015,98.78,172.0,+,47.0,Active,1,LEO,USA,ORBCOMM,Commercial,Communications,Falcon,1 41187U 15081J   25060.79065451  .00001835  00000+0  43338-3 0  9996,2 41187  47.0031 254.0602 0002998 183.0378 177.0490 14.57850805491123,14.57850805,0.0002998,LEO
41188,ORBCOMM FM117,2015,98.78,172.0,+,47.0,Active,1,LEO,USA,ORBCOMM,Commercial,Communications,Falcon,1 41188U 15081K   25060.55131100  .00001509  00000+0  36288-3 0  9990,2 41188  47.0005 253.9881 0003394 188.9861 171.0964 14.57852730491189,14.5785273,0.0003394,LEO
41189,ORBCOMM FM116,2015,98.78,172.0,+,47.0,Active,1,LEO,USA,ORBCOMM,Commercial,Communications,Falcon,1 41189U 15081L   25060.81625755  .00002671  00000+0  61410-3 0  9990,2 41189  47.0027 342.5976 0002017 280.1909  79.8749 14.57843011489986,14.57843011,0.0002017,LEO
